{
  "norad_id": 29486,
  "name": "NAVSTAR 58 (USA 190)",
  "history": [
    {
      "epoch": "2026-03-28T23:06:47.273760Z",
      "apogee_km": 20463.76298866397,
      "perigee_km": 19898.791132764458,
      "latitude_deg": 6.100122439420191,
      "longitude_deg": 157.13241986118908,
      "height_km": 20317.414903336525,
      "semi_major_axis_km": 26559.41406071421,
      "eccentricity": 0.010636,
      "inclination_deg": 54.6992,
      "raan_deg": 154.5249,
      "arg_perigee_deg": 53.1327,
      "mean_anomaly_deg": 118.3397,
      "mean_motion_rev_day": 2.00574181
    }
  ]
}